[{"OBJECT_NAME":"ONEWEB-0342","OBJECT_ID":"2021-083Y","EPOCH":"2025-11-18T10:39:17.712000","MEAN_MOTION":13.20773978,"ECCENTRICITY":0.000198,"INCLINATION":87.9187,"RA_OF_ASC_NODE":316.4636,"ARG_OF_PERICENTER":89.5917,"MEAN_ANOMALY":270.5444,"EPHEMERIS_TYPE":0,"CLASSIFICATION_TYPE":"U","NORAD_CAT_ID":49208,"ELEMENT_SET_NO":999,"REV_AT_EPOCH":20896,"BSTAR":7.1445e-5,"MEAN_MOTION_DOT":4.2e-7,"MEAN_MOTION_DDOT":0},{"OBJECT_NAME":"ONEWEB-0343","OBJECT_ID":"2021-083Z","EPOCH":"2025-11-18T05:05:43.372320","MEAN_MOTION":13.18687032,"ECCENTRICITY":0.0002147,"INCLINATION":87.9214,"RA_OF_ASC_NODE":17.3586,"ARG_OF_PERICENTER":85.1827,"MEAN_ANOMALY":274.955,"EPHEMERIS_TYPE":0,"CLASSIFICATION_TYPE":"U","NORAD_CAT_ID":49209,"ELEMENT_SET_NO":999,"REV_AT_EPOCH":20223,"BSTAR":0.0001331,"MEAN_MOTION_DOT":6.5e-7,"MEAN_MOTION_DDOT":0},{"OBJECT_NAME":"ONEWEB-0344","OBJECT_ID":"2021-083AA","EPOCH":"2025-11-18T04:25:05.674080","MEAN_MOTION":13.13468755,"ECCENTRICITY":0.0001656,"INCLINATION":87.8997,"RA_OF_ASC_NODE":2.2077,"ARG_OF_PERICENTER":83.8698,"MEAN_ANOMALY":276.262,"EPHEMERIS_TYPE":0,"CLASSIFICATION_TYPE":"U","NORAD_CAT_ID":49210,"ELEMENT_SET_NO":999,"REV_AT_EPOCH":20319,"BSTAR":0.0009337,"MEAN_MOTION_DOT":3.54e-6,"MEAN_MOTION_DDOT":0},{"OBJECT_NAME":"ONEWEB-0345","OBJECT_ID":"2021-083AB","EPOCH":"2025-11-18T04:12:54.977184","MEAN_MOTION":13.13469944,"ECCENTRICITY":0.0001756,"INCLINATION":87.9002,"RA_OF_ASC_NODE":2.167,"ARG_OF_PERICENTER":84.0077,"MEAN_ANOMALY":276.1253,"EPHEMERIS_TYPE":0,"CLASSIFICATION_TYPE":"U","NORAD_CAT_ID":49211,"ELEMENT_SET_NO":999,"REV_AT_EPOCH":20320,"BSTAR":0.0010329,"MEAN_MOTION_DOT":3.9e-6,"MEAN_MOTION_DDOT":0},{"OBJECT_NAME":"ONEWEB-0346","OBJECT_ID":"2021-083AC","EPOCH":"2025-11-18T05:00:57.268224","MEAN_MOTION":13.18684735,"ECCENTRICITY":0.0001327,"INCLINATION":87.9211,"RA_OF_ASC_NODE":17.3757,"ARG_OF_PERICENTER":114.2209,"MEAN_ANOMALY":245.9062,"EPHEMERIS_TYPE":0,"CLASSIFICATION_TYPE":"U","NORAD_CAT_ID":49212,"ELEMENT_SET_NO":999,"REV_AT_EPOCH":20217,"BSTAR":6.0099e-6,"MEAN_MOTION_DOT":1.5e-7,"MEAN_MOTION_DDOT":0},{"OBJECT_NAME":"ONEWEB-0348","OBJECT_ID":"2021-083AD","EPOCH":"2025-11-18T10:25:39.569664","MEAN_MOTION":13.20773658,"ECCENTRICITY":0.0001325,"INCLINATION":87.9171,"RA_OF_ASC_NODE":316.4736,"ARG_OF_PERICENTER":77.5443,"MEAN_ANOMALY":282.5838,"EPHEMERIS_TYPE":0,"CLASSIFICATION_TYPE":"U","NORAD_CAT_ID":49213,"ELEMENT_SET_NO":999,"REV_AT_EPOCH":20899,"BSTAR":5.7765e-5,"MEAN_MOTION_DOT":3.6e-7,"MEAN_MOTION_DDOT":0},{"OBJECT_NAME":"ONEWEB-0350","OBJECT_ID":"2021-083AE","EPOCH":"2025-11-18T11:45:05.603616","MEAN_MOTION":13.13469355,"ECCENTRICITY":0.0001629,"INCLINATION":87.9004,"RA_OF_ASC_NODE":2.1017,"ARG_OF_PERICENTER":87.7667,"MEAN_ANOMALY":272.3649,"EPHEMERIS_TYPE":0,"CLASSIFICATION_TYPE":"U","NORAD_CAT_ID":49214,"ELEMENT_SET_NO":999,"REV_AT_EPOCH":20327,"BSTAR":0.00099819,"MEAN_MOTION_DOT":3.77e-6,"MEAN_MOTION_DDOT":0},{"OBJECT_NAME":"ONEWEB-0351","OBJECT_ID":"2021-083AF","EPOCH":"2025-11-18T10:16:24.142944","MEAN_MOTION":13.20771534,"ECCENTRICITY":0.0002686,"INCLINATION":87.9182,"RA_OF_ASC_NODE":316.469,"ARG_OF_PERICENTER":81.3784,"MEAN_ANOMALY":278.7653,"EPHEMERIS_TYPE":0,"CLASSIFICATION_TYPE":"U","NORAD_CAT_ID":49215,"ELEMENT_SET_NO":999,"REV_AT_EPOCH":20895,"BSTAR":0.00016476,"MEAN_MOTION_DOT":8.0e-7,"MEAN_MOTION_DDOT":0},{"OBJECT_NAME":"ONEWEB-0352","OBJECT_ID":"2021-083AG","EPOCH":"2025-11-18T03:58:17.149728","MEAN_MOTION":13.1346989,"ECCENTRICITY":0.0002265,"INCLINATION":87.8995,"RA_OF_ASC_NODE":2.1914,"ARG_OF_PERICENTER":92.6946,"MEAN_ANOMALY":267.4442,"EPHEMERIS_TYPE":0,"CLASSIFICATION_TYPE":"U","NORAD_CAT_ID":49216,"ELEMENT_SET_NO":999,"REV_AT_EPOCH":20332,"BSTAR":0.00027788,"MEAN_MOTION_DOT":1.14e-6,"MEAN_MOTION_DDOT":0},{"OBJECT_NAME":"ONEWEB-0354","OBJECT_ID":"2021-083AH","EPOCH":"2025-11-18T09:03:51.476832","MEAN_MOTION":13.20772866,"ECCENTRICITY":0.0001665,"INCLINATION":87.9186,"RA_OF_ASC_NODE":316.478,"ARG_OF_PERICENTER":81.7424,"MEAN_ANOMALY":278.3899,"EPHEMERIS_TYPE":0,"CLASSIFICATION_TYPE":"U","NORAD_CAT_ID":49217,"ELEMENT_SET_NO":999,"REV_AT_EPOCH":20898,"BSTAR":0.00015741,"MEAN_MOTION_DOT":7.7e-7,"MEAN_MOTION_DDOT":0},{"OBJECT_NAME":"ONEWEB-0355","OBJECT_ID":"2021-083AJ","EPOCH":"2025-11-18T11:58:42.716064","MEAN_MOTION":13.13468743,"ECCENTRICITY":0.0001904,"INCLINATION":87.9003,"RA_OF_ASC_NODE":2.1381,"ARG_OF_PERICENTER":88.8733,"MEAN_ANOMALY":271.2614,"EPHEMERIS_TYPE":0,"CLASSIFICATION_TYPE":"U","NORAD_CAT_ID":49218,"ELEMENT_SET_NO":999,"REV_AT_EPOCH":20324,"BSTAR":0.00060328,"MEAN_MOTION_DOT":2.33e-6,"MEAN_MOTION_DDOT":0},{"OBJECT_NAME":"ONEWEB-0357","OBJECT_ID":"2021-083AK","EPOCH":"2025-11-18T10:48:24.611904","MEAN_MOTION":13.20772578,"ECCENTRICITY":0.0001937,"INCLINATION":87.9184,"RA_OF_ASC_NODE":316.4604,"ARG_OF_PERICENTER":85.0609,"MEAN_ANOMALY":275.0745,"EPHEMERIS_TYPE":0,"CLASSIFICATION_TYPE":"U","NORAD_CAT_ID":49219,"ELEMENT_SET_NO":999,"REV_AT_EPOCH":20899,"BSTAR":-4.7264e-5,"MEAN_MOTION_DOT":-6.0e-8,"MEAN_MOTION_DDOT":0},{"OBJECT_NAME":"ONEWEB-0332","OBJECT_ID":"2021-090A","EPOCH":"2025-11-18T01:37:46.293024","MEAN_MOTION":13.14501352,"ECCENTRICITY":0.0002049,"INCLINATION":87.8974,"RA_OF_ASC_NODE":331.7803,"ARG_OF_PERICENTER":95.3186,"MEAN_ANOMALY":264.8178,"EPHEMERIS_TYPE":0,"CLASSIFICATION_TYPE":"U","NORAD_CAT_ID":49279,"ELEMENT_SET_NO":999,"REV_AT_EPOCH":19984,"BSTAR":-0.00033239,"MEAN_MOTION_DOT":-1.1e-6,"MEAN_MOTION_DDOT":0},{"OBJECT_NAME":"ONEWEB-0347","OBJECT_ID":"2021-090B","EPOCH":"2025-11-18T10:34:46.504128","MEAN_MOTION":13.20771498,"ECCENTRICITY":0.0002006,"INCLINATION":87.9177,"RA_OF_ASC_NODE":316.4741,"ARG_OF_PERICENTER":98.359,"MEAN_ANOMALY":261.777,"EPHEMERIS_TYPE":0,"CLASSIFICATION_TYPE":"U","NORAD_CAT_ID":49280,"ELEMENT_SET_NO":999,"REV_AT_EPOCH":20322,"BSTAR":3.991e-5,"MEAN_MOTION_DOT":2.9e-7,"MEAN_MOTION_DDOT":0},{"OBJECT_NAME":"ONEWEB-0349","OBJECT_ID":"2021-090C","EPOCH":"2025-11-18T11:20:14.027712","MEAN_MOTION":13.20773263,"ECCENTRICITY":0.0001925,"INCLINATION":87.9174,"RA_OF_ASC_NODE":316.4669,"ARG_OF_PERICENTER":88.1437,"MEAN_ANOMALY":271.9916,"EPHEMERIS_TYPE":0,"CLASSIFICATION_TYPE":"U","NORAD_CAT_ID":49281,"ELEMENT_SET_NO":999,"REV_AT_EPOCH":20201,"BSTAR":0.00017687,"MEAN_MOTION_DOT":8.5e-7,"MEAN_MOTION_DDOT":0},{"OBJECT_NAME":"ONEWEB-0353","OBJECT_ID":"2021-090D","EPOCH":"2025-11-18T10:34:24.110976","MEAN_MOTION":13.14501834,"ECCENTRICITY":0.0002021,"INCLINATION":87.8983,"RA_OF_ASC_NODE":331.6897,"ARG_OF_PERICENTER":96.9526,"MEAN_ANOMALY":263.1833,"EPHEMERIS_TYPE":0,"CLASSIFICATION_TYPE":"U","NORAD_CAT_ID":49282,"ELEMENT_SET_NO":999,"REV_AT_EPOCH":19989,"BSTAR":-0.0002366,"MEAN_MOTION_DOT":-7.5e-7,"MEAN_MOTION_DDOT":0},{"OBJECT_NAME":"ONEWEB-0356","OBJECT_ID":"2021-090E","EPOCH":"2025-11-18T11:17:56.599008","MEAN_MOTION":13.20773445,"ECCENTRICITY":0.000144,"INCLINATION":87.9179,"RA_OF_ASC_NODE":316.4585,"ARG_OF_PERICENTER":118.769,"MEAN_ANOMALY":241.3588,"EPHEMERIS_TYPE":0,"CLASSIFICATION_TYPE":"U","NORAD_CAT_ID":49283,"ELEMENT_SET_NO":999,"REV_AT_EPOCH":20201,"BSTAR":0.00026695,"MEAN_MOTION_DOT":1.22e-6,"MEAN_MOTION_DDOT":0}]
