ONEWEB-0342             
1 49208U 21083Y   25322.44395500  .00000042  00000+0  71445-4 0  9991
2 49208  87.9187 316.4636 0001980  89.5917 270.5444 13.20773978208969
ONEWEB-0343             
1 49209U 21083Z   25322.21230755  .00000065  00000+0  13310-3 0  9998
2 49209  87.9214  17.3586 0002147  85.1827 274.9550 13.18687032202232
ONEWEB-0344             
1 49210U 21083AA  25322.18409345  .00000354  00000+0  93370-3 0  9994
2 49210  87.8997   2.2077 0001656  83.8698 276.2620 13.13468755203197
ONEWEB-0345             
1 49211U 21083AB  25322.17563631  .00000390  00000+0  10329-2 0  9995
2 49211  87.9002   2.1670 0001756  84.0077 276.1253 13.13469944203203
ONEWEB-0346             
1 49212U 21083AC  25322.20899616  .00000015  00000+0  60099-5 0  9991
2 49212  87.9211  17.3757 0001327 114.2209 245.9062 13.18684735202176
ONEWEB-0348             
1 49213U 21083AD  25322.43448576  .00000036  00000+0  57765-4 0  9990
2 49213  87.9171 316.4736 0001325  77.5443 282.5838 13.20773658208991
ONEWEB-0350             
1 49214U 21083AE  25322.48964819  .00000377  00000+0  99819-3 0  9992
2 49214  87.9004   2.1017 0001629  87.7667 272.3649 13.13469355203277
ONEWEB-0351             
1 49215U 21083AF  25322.42805721  .00000080  00000+0  16476-3 0  9992
2 49215  87.9182 316.4690 0002686  81.3784 278.7653 13.20771534208955
ONEWEB-0352             
1 49216U 21083AG  25322.16547627  .00000114  00000+0  27788-3 0  9998
2 49216  87.8995   2.1914 0002265  92.6946 267.4442 13.13469890203321
ONEWEB-0354             
1 49217U 21083AH  25322.37767913  .00000077  00000+0  15741-3 0  9998
2 49217  87.9186 316.4780 0001665  81.7424 278.3899 13.20772866208982
ONEWEB-0355             
1 49218U 21083AJ  25322.49910551  .00000233  00000+0  60328-3 0  9995
2 49218  87.9003   2.1381 0001904  88.8733 271.2614 13.13468743203243
ONEWEB-0357             
1 49219U 21083AK  25322.45028486 -.00000006  00000+0 -47264-4 0  9994
2 49219  87.9184 316.4604 0001937  85.0609 275.0745 13.20772578208996
ONEWEB-0332             
1 49279U 21090A   25322.06789691 -.00000110  00000+0 -33239-3 0  9999
2 49279  87.8974 331.7803 0002049  95.3186 264.8178 13.14501352199840
ONEWEB-0347             
1 49280U 21090B   25322.44081602  .00000029  00000+0  39910-4 0  9990
2 49280  87.9177 316.4741 0002006  98.3590 261.7770 13.20771498203223
ONEWEB-0349             
1 49281U 21090C   25322.47238458  .00000085  00000+0  17687-3 0  9995
2 49281  87.9174 316.4669 0001925  88.1437 271.9916 13.20773263202019
ONEWEB-0353             
1 49282U 21090D   25322.44055684 -.00000075  00000+0 -23660-3 0  9990
2 49282  87.8983 331.6897 0002021  96.9526 263.1833 13.14501834199891
ONEWEB-0356             
1 49283U 21090E   25322.47079397  .00000122  00000+0  26695-3 0  9993
2 49283  87.9179 316.4585 0001440 118.7690 241.3588 13.20773445202014
